[{"OBJECT_NAME":"GRUS-1A","OBJECT_ID":"2018-111Q","EPOCH":"2026-03-09T23:18:05.956128","MEAN_MOTION":14.98893897,"ECCENTRICITY":0.00097781,"INCLINATION":97.4655,"RA_OF_ASC_NODE":300.3513,"ARG_OF_PERICENTER":128.8058,"MEAN_ANOMALY":231.404,"EPHEMERIS_TYPE":0,"CLASSIFICATION_TYPE":"U","NORAD_CAT_ID":43890,"ELEMENT_SET_NO":999,"REV_AT_EPOCH":39284,"BSTAR":0.00022419467,"MEAN_MOTION_DOT":2.655e-5,"MEAN_MOTION_DDOT":0},{"OBJECT_NAME":"STARLINK-5888","OBJECT_ID":"2023-058AH","EPOCH":"2026-03-09T23:21:54.122976","MEAN_MOTION":15.01259411,"ECCENTRICITY":0.00021802,"INCLINATION":97.6029,"RA_OF_ASC_NODE":70.4861,"ARG_OF_PERICENTER":164.2929,"MEAN_ANOMALY":195.8363,"EPHEMERIS_TYPE":0,"CLASSIFICATION_TYPE":"U","NORAD_CAT_ID":56348,"ELEMENT_SET_NO":999,"REV_AT_EPOCH":15817,"BSTAR":-4.5188127e-5,"MEAN_MOTION_DOT":-6.39e-6,"MEAN_MOTION_DDOT":0}]
